KUIPER-00112            
1 65150U 25171U   25258.21619551  .00031578  00000+0  90152-3 0  9998
2 65150  51.8750 237.4703 0004478 290.7601  69.2905 15.35740062  6571
KUIPER-00114            
1 65151U 25171V   25258.25003472  .00065113  00000+0  26894-2 0  9995
2 65151  51.8811 237.7713 0003159 271.5699  20.3302 15.23396815  5807
KUIPER-00115            
1 65152U 25171W   25258.20401025  .00062089  00000+0  17219-2 0  9997
2 65152  51.8767 237.3868 0003771 253.2044 106.8528 15.36336074  6576
KUIPER-00116            
1 65153U 25171X   25258.25003472 -.00896324  00000+0 -33761-1 0  9995
2 65153  51.8783 237.3856 0003146 272.2784 224.7111 15.29392665  5566
KUIPER-00118            
1 65154U 25171Y   25258.25003472 -.00855879  00000+0 -36608-1 0  9999
2 65154  51.8789 237.6740 0003159 273.6309 103.2500 15.25109354  3894
KUIPER-00119            
1 65155U 25171Z   25257.35387498  .00028510  00000+0  79643-3 0  9993
2 65155  51.8764 241.4425 0004717 247.5044 112.5443 15.36472017  6442
